*******************************************************************************
JPL/HORIZONS              2830 Greenwich (1980 GA)         2023-Sep-04 11:20:10
Rec #:    2830 (+COV) Soln.date: 2023-Aug-23_02:44:42   # obs: 4898 (1969-2023)
 
IAU76/J2000 helio. ecliptic osc. elements (au, days, deg., period=Julian yrs):
 
  EPOCH=  2457923.5 ! 2017-Jun-19.00 (TDB)         Residual RMS= .23434
   EC= .205334374952623    QR= 1.889866901074776   TP= 2457695.6830917383
   OM= 49.01463967684186   W=  141.1080642396329   IN= 25.35487037934232
   A= 2.378191331683819    MA= 61.22373772610159   ADIST= 2.866515762292861
   PER= 3.66757            N= .268740974           ANGMOM= .025962758
   DAN= 2.71122            DDN= 1.96403            L= 192.9240085
   B= 15.5965376           MOID= .92434001         TP= 2016-Nov-03.1830917383
 
Asteroid physical parameters (km, seconds, rotational period in hours):
   GM= n.a.                RAD= 3.946              ROTPER= 80.0681
   H= 12.64                G= .150                 B-V= .867
                           ALBEDO= .172            STYP= S

ASTEROID comments: 
1: soln ref.= JPL#45, OCC=0
2: source=ORB
*******************************************************************************


*******************************************************************************
Ephemeris / API_USER Mon Sep  4 11:20:10 2023 Pasadena, USA      / Horizons
*******************************************************************************
Target body name: 2830 Greenwich (1980 GA)        {source: JPL#45}
Center body name: Solar System Barycenter (0)     {source: DE441}
Center-site name: BODY CENTER
*******************************************************************************
Start time      : A.D. 2023-Aug-12 00:00:00.0000 TDB
Stop  time      : A.D. 2023-Aug-13 00:00:00.0000 TDB
Step-size       : 2880 minutes
*******************************************************************************
Center geodetic : 0.0, 0.0, 0.0                   {E-lon(deg),Lat(deg),Alt(km)}
Center cylindric: 0.0, 0.0, 0.0                   {E-lon(deg),Dxy(km),Dz(km)}
Center radii    : (undefined)
Small perturbers: Yes                             {source: SB441-N16}
Output units    : KM-S
Calendar mode   : Mixed Julian/Gregorian
Output type     : GEOMETRIC cartesian states
Output format   : 2 (position and velocity)
Reference frame : Ecliptic of J2000.0
*******************************************************************************
Initial IAU76/J2000 heliocentric ecliptic osculating elements (au, days, deg.):
  EPOCH=  2457923.5 ! 2017-Jun-19.00 (TDB)         Residual RMS= .23434        
   EC= .205334374952623    QR= 1.889866901074776   TP= 2457695.6830917383      
   OM= 49.01463967684186   W=  141.1080642396329   IN= 25.35487037934232       
  Equivalent ICRF heliocentric cartesian coordinates (au, au/d):
   X= 4.928111156966392E-02  Y=-1.679746563085944E+00  Z=-1.467235096229340E+00
  VX= 1.106157969483558E-02 VY= 9.058914375067585E-04 VZ=-4.205077824082911E-03
Asteroid physical parameters (km, seconds, rotational period in hours):        
   GM= n.a.                RAD= 3.946              ROTPER= 80.0681             
   H= 12.64                G= .150                 B-V= .867                   
                           ALBEDO= .172            STYP= S                     
*******************************************************************************
JDTDB
   X     Y     Z
   VX    VY    VZ
*******************************************************************************
$$SOE
2460168.500000000 = A.D. 2023-Aug-12 00:00:00.0000 TDB 
 X =-1.035673012462907E+08 Y = 2.838586138581111E+08 Z = 1.252306388063636E+08
 VX=-1.711599714426561E+01 VY=-1.183156293650014E+01 VZ= 2.433535443445528E+00
$$EOE
*******************************************************************************
 
TIME

  Barycentric Dynamical Time ("TDB" or T_eph) output was requested. This
continuous coordinate time is equivalent to the relativistic proper time
of a clock at rest in a reference frame co-moving with the solar system
barycenter but outside the system's gravity well. It is the independent
variable in the solar system relativistic equations of motion.

  TDB runs at a uniform rate of one SI second per second and is independent
of irregularities in Earth's rotation.
 
CALENDAR SYSTEM

  Mixed calendar mode was active such that calendar dates after AD 1582-Oct-15
(if any) are in the modern Gregorian system. Dates prior to 1582-Oct-5 (if any)
are in the Julian calendar system, which is automatically extended for dates
prior to its adoption on 45-Jan-1 BC.  The Julian calendar is useful for
matching historical dates. The Gregorian calendar more accurately corresponds
to the Earth's orbital motion and seasons. A "Gregorian-only" calendar mode is
available if such physical events are the primary interest.

REFERENCE FRAME AND COORDINATES

  Ecliptic at the standard reference epoch

    Reference epoch: J2000.0
    X-Y plane: adopted Earth orbital plane at the reference epoch
               Note: IAU76 obliquity of 84381.448 arcseconds wrt ICRF X-Y plane
    X-axis   : ICRF
    Z-axis   : perpendicular to the X-Y plane in the directional (+ or -) sense
               of Earth's north pole at the reference epoch.

  Symbol meaning:

    JDTDB    Julian Day Number, Barycentric Dynamical Time
      X      X-component of position vector (km)
      Y      Y-component of position vector (km)
      Z      Z-component of position vector (km)
      VX     X-component of velocity vector (km/sec)                           
      VY     Y-component of velocity vector (km/sec)                           
      VZ     Z-component of velocity vector (km/sec)                           

ABERRATIONS AND CORRECTIONS

 Geometric state vectors have NO corrections or aberrations applied.

Computations by ...

    Solar System Dynamics Group, Horizons On-Line Ephemeris System
    4800 Oak Grove Drive, Jet Propulsion Laboratory
    Pasadena, CA  91109   USA

    General site: https://ssd.jpl.nasa.gov/
    Mailing list: https://ssd.jpl.nasa.gov/email_list.html
    System news : https://ssd.jpl.nasa.gov/horizons/news.html
    User Guide  : https://ssd.jpl.nasa.gov/horizons/manual.html
    Connect     : browser        https://ssd.jpl.nasa.gov/horizons/app.html#/x
                  API            https://ssd-api.jpl.nasa.gov/doc/horizons.html
                  command-line   telnet ssd.jpl.nasa.gov 6775
                  e-mail/batch   https://ssd.jpl.nasa.gov/ftp/ssd/hrzn_batch.txt
                  scripts        https://ssd.jpl.nasa.gov/ftp/ssd/SCRIPTS
    Author      : Jon.D.Giorgini@jpl.nasa.gov
*******************************************************************************
